{
  "type": "FeatureCollection",
  "features": [
    {
      "type": "Feature",
      "properties": {
        "norad_id": 66549,
        "name": "SHIJIAN-28 (SJ-28)",
        "group": "last-30-days",
        "lat": -3.6997407496836736,
        "lon": 142.78016765166393,
        "alt_km": 35789.48971325051,
        "timestamp": "2025-12-26T19:22:37.603325+00:00",
        "meta_object_name": "SHIJIAN-28 (SJ-28)",
        "meta_object_id": "2025-277A",
        "meta_epoch": "2025-12-25T13:29:07.948320",
        "meta_mean_motion": 1.0026485,
        "meta_eccentricity": 9.97e-05,
        "meta_inclination": 4.9871,
        "meta_ra_of_asc_node": 274.7549,
        "meta_arg_of_pericenter": 127.1328,
        "meta_mean_anomaly": 11.4336,
        "meta_ephemeris_type": 0,
        "meta_classification_type": "U",
        "meta_norad_cat_id": 66549,
        "meta_element_set_no": 999,
        "meta_rev_at_epoch": 41,
        "meta_bstar": 0,
        "meta_mean_motion_dot": -3.37e-06,
        "meta_mean_motion_ddot": 0,
        "tle_line1": "1 66549U 25277A   25359.56189755 -.00000337  00000+0  00000+0 0  9995",
        "tle_line2": "2 66549   4.9871 274.7549 0000997 127.1328  11.4336  1.00264850   417"
      },
      "geometry": {
        "type": "Point",
        "coordinates": [
          142.78016765166393,
          -3.6997407496836736
        ]
      }
    },
    {
      "type": "Feature",
      "properties": {
        "norad_id": 66550,
        "name": "CZ-7A R/B",
        "group": "last-30-days",
        "lat": 2.4848602441243584,
        "lon": -88.96537803312353,
        "alt_km": 18345.819823316797,
        "timestamp": "2025-12-26T19:22:37.603377+00:00",
        "meta_object_name": "CZ-7A R/B",
        "meta_object_id": "2025-277B",
        "meta_epoch": "2025-12-23T05:53:12.433056",
        "meta_mean_motion": 3.27661077,
        "meta_eccentricity": 0.66094342,
        "meta_inclination": 14.3426,
        "meta_ra_of_asc_node": 263.9223,
        "meta_arg_of_pericenter": 200.4471,
        "meta_mean_anomaly": 110.5172,
        "meta_ephemeris_type": 0,
        "meta_classification_type": "U",
        "meta_norad_cat_id": 66550,
        "meta_element_set_no": 999,
        "meta_rev_at_epoch": 65,
        "meta_bstar": 0.0068493476,
        "meta_mean_motion_dot": 0.10979967,
        "meta_mean_motion_ddot": 1.8894821e-05,
        "tle_line1": "1 66550U 25277B   25357.24528279  .10979967  18895-4  68493-2 0  9991",
        "tle_line2": "2 66550  14.3426 263.9223 6609434 200.4471 110.5172  3.27661077   658"
      },
      "geometry": {
        "type": "Point",
        "coordinates": [
          -88.96537803312353,
          2.4848602441243584
        ]
      }
    },
    {
      "type": "Feature",
      "properties": {
        "norad_id": 66554,
        "name": "GLOBAL-33",
        "group": "last-30-days",
        "lat": -22.513391630697196,
        "lon": -51.63391366472813,
        "alt_km": 474.9150402532059,
        "timestamp": "2025-12-26T19:22:37.603404+00:00",
        "meta_object_name": "GLOBAL-33",
        "meta_object_id": "2025-267A",
        "meta_epoch": "2025-12-26T07:00:36.918144",
        "meta_mean_motion": 15.31789204,
        "meta_eccentricity": 0.00049594,
        "meta_inclination": 42.0213,
        "meta_ra_of_asc_node": 338.7502,
        "meta_arg_of_pericenter": 185.8962,
        "meta_mean_anomaly": 174.1818,
        "meta_ephemeris_type": 0,
        "meta_classification_type": "U",
        "meta_norad_cat_id": 66554,
        "meta_element_set_no": 999,
        "meta_rev_at_epoch": 548,
        "meta_bstar": 0.00047882598,
        "meta_mean_motion_dot": 0.00014797,
        "meta_mean_motion_ddot": 0,
        "tle_line1": "1 66554U 25267A   25360.29209396  .00014797  00000+0  47883-3 0  9994",
        "tle_line2": "2 66554  42.0213 338.7502 0004959 185.8962 174.1818 15.31789204  5481"
      },
      "geometry": {
        "type": "Point",
        "coordinates": [
          -51.63391366472813,
          -22.513391630697196
        ]
      }
    },
    {
      "type": "Feature",
      "properties": {
        "norad_id": 66557,
        "name": "STARLINK-35699",
        "group": "last-30-days",
        "lat": 12.297173517750888,
        "lon": -154.40487580279333,
        "alt_km": 465.2484894370973,
        "timestamp": "2025-12-26T19:22:37.603418+00:00",
        "meta_object_name": "STARLINK-35699",
        "meta_object_id": "2025-268A",
        "meta_epoch": "2025-12-26T14:00:04.000032",
        "meta_mean_motion": 15.33940412,
        "meta_eccentricity": 0.0001457,
        "meta_inclination": 43.0006,
        "meta_ra_of_asc_node": 40.4,
        "meta_arg_of_pericenter": 268.4604,
        "meta_mean_anomaly": 95.2274,
        "meta_ephemeris_type": 0,
        "meta_classification_type": "U",
        "meta_norad_cat_id": 66557,
        "meta_element_set_no": 999,
        "meta_rev_at_epoch": 595,
        "meta_bstar": -0.064715,
        "meta_mean_motion_dot": -0.01936734,
        "meta_mean_motion_ddot": 0,
        "tle_line1": "1 66557U 25268A   25360.58337963 -.01936734  00000+0 -64715-1 0  9990",
        "tle_line2": "2 66557  43.0006  40.4000 0001457 268.4604  95.2274 15.33940412  5959"
      },
      "geometry": {
        "type": "Point",
        "coordinates": [
          -154.40487580279333,
          12.297173517750888
        ]
      }
    },
    {
      "type": "Feature",
      "properties": {
        "norad_id": 66558,
        "name": "STARLINK-35695",
        "group": "last-30-days",
        "lat": 0.5917778816381353,
        "lon": -141.55356287746505,
        "alt_km": 464.1618453485007,
        "timestamp": "2025-12-26T19:22:37.603434+00:00",
        "meta_object_name": "STARLINK-35695",
        "meta_object_id": "2025-268B",
        "meta_epoch": "2025-12-26T14:00:04.000032",
        "meta_mean_motion": 15.347826,
        "meta_eccentricity": 0.00015968,
        "meta_inclination": 43.0013,
        "meta_ra_of_asc_node": 40.3601,
        "meta_arg_of_pericenter": 271.2436,
        "meta_mean_anomaly": 109.097,
        "meta_ephemeris_type": 0,
        "meta_classification_type": "U",
        "meta_norad_cat_id": 66558,
        "meta_element_set_no": 999,
        "meta_rev_at_epoch": 595,
        "meta_bstar": -0.063198824,
        "meta_mean_motion_dot": -0.01942601,
        "meta_mean_motion_ddot": 0,
        "tle_line1": "1 66558U 25268B   25360.58337963 -.01942601  00000+0 -63199-1 0  9996",
        "tle_line2": "2 66558  43.0013  40.3601 0001596 271.2436 109.0970 15.34782600  5954"
      },
      "geometry": {
        "type": "Point",
        "coordinates": [
          -141.55356287746505,
          0.5917778816381353
        ]
      }
    },
    {
      "type": "Feature",
      "properties": {
        "norad_id": 66559,
        "name": "STARLINK-35419",
        "group": "last-30-days",
        "lat": -42.6093206699634,
        "lon": -60.33693346784347,
        "alt_km": 451.52824612817403,
        "timestamp": "2025-12-26T19:22:37.603446+00:00",
        "meta_object_name": "STARLINK-35419",
        "meta_object_id": "2025-268C",
        "meta_epoch": "2025-12-26T14:00:04.000032",
        "meta_mean_motion": 15.39920521,
        "meta_eccentricity": 0.00015105,
        "meta_inclination": 43.0005,
        "meta_ra_of_asc_node": 40.1657,
        "meta_arg_of_pericenter": 289.7986,
        "meta_mean_anomaly": 170.552,
        "meta_ephemeris_type": 0,
        "meta_classification_type": "U",
        "meta_norad_cat_id": 66559,
        "meta_element_set_no": 999,
        "meta_rev_at_epoch": 601,
        "meta_bstar": -0.053597956,
        "meta_mean_motion_dot": -0.01948739,
        "meta_mean_motion_ddot": 0,
        "tle_line1": "1 66559U 25268C   25360.58337963 -.01948739  00000+0 -53598-1 0  9997",
        "tle_line2": "2 66559  43.0005  40.1657 0001510 289.7986 170.5520 15.39920521  6018"
      },
      "geometry": {
        "type": "Point",
        "coordinates": [
          -60.33693346784347,
          -42.6093206699634
        ]
      }
    },
    {
      "type": "Feature",
      "properties": {
        "norad_id": 66560,
        "name": "STARLINK-35411",
        "group": "last-30-days",
        "lat": -42.93213975602958,
        "lon": -47.81814312947087,
        "alt_km": 449.9694652865601,
        "timestamp": "2025-12-26T19:22:37.603457+00:00",
        "meta_object_name": "STARLINK-35411",
        "meta_object_id": "2025-268D",
        "meta_epoch": "2025-12-26T14:00:04.000032",
        "meta_mean_motion": 15.40448451,
        "meta_eccentricity": 0.00013885,
        "meta_inclination": 43.0006,
        "meta_ra_of_asc_node": 40.1442,
        "meta_arg_of_pericenter": 289.9846,
        "meta_mean_anomaly": 179.1522,
        "meta_ephemeris_type": 0,
        "meta_classification_type": "U",
        "meta_norad_cat_id": 66560,
        "meta_element_set_no": 999,
        "meta_rev_at_epoch": 601,
        "meta_bstar": -0.052434068,
        "meta_mean_motion_dot": -0.01941147,
        "meta_mean_motion_ddot": 0,
        "tle_line1": "1 66560U 25268D   25360.58337963 -.01941147  00000+0 -52434-1 0  9993",
        "tle_line2": "2 66560  43.0006  40.1442 0001388 289.9846 179.1522 15.40448451  6019"
      },
      "geometry": {
        "type": "Point",
        "coordinates": [
          -47.81814312947087,
          -42.93213975602958
        ]
      }
    }
  ]
}